[{"Location":"Mount Vernon Police Department","Street Address":"2 Roosevelt Square No.","City":"Mt Vernon","Zip":"10550","Latitude":40.9127886,"Longitude":-73.83875739999999,"Type":"Police"},{"Location":"Port Washington Police District","Street Address":"500 Port Washington Blvd","City":"Port Washington","Zip":"11050","Latitude":40.8238125,"Longitude":-73.6822783,"Type":"Police"},{"Location":"New York City Police Department","Street Address":"2951 West 8Th St","City":"Brooklyn","Zip":"11224","Latitude":40.576552,"Longitude":-73.9761158,"Type":"Police"},{"Location":"Eastchester Police Dept","Street Address":"40 Mill Rd","City":"Eastchester","Zip":"10709","Latitude":40.9555192,"Longitude":-73.8113961,"Type":"Police"},{"Location":"Nassau County Sixth Precinct","Street Address":"100 Community Dr","City":"Manhasset","Zip":"11003","Latitude":40.7819833,"Longitude":-73.70607629999999,"Type":"Police"},{"Location":"ScarsdalePolice Department","Street Address":"50 Tompkins Road","City":"Scarsdale","Zip":"10583","Latitude":41.0051478,"Longitude":-73.7848786,"Type":"Police"},{"Location":"Ardsley Police Department","Street Address":"507 Ashford Avenue","City":"Ardsley","Zip":"10502","Latitude":41.0115632,"Longitude":-73.8460874,"Type":"Police"},{"Location":"Nassau County Third Precinct","Street Address":"214 Hillside Ave","City":"Williston Park","Zip":"11596","Latitude":40.7556131,"Longitude":-73.6482401,"Type":"Police"},{"Location":"Orangetown Police Department","Street Address":"26 W. Orangeburg Road","City":"Orangeburg","Zip":"10962","Latitude":41.0464984,"Longitude":-73.9559123,"Type":"Police"},{"Location":"Nassau County Fourth Precinct","Street Address":"1699 Broadway","City":"Hewlett","Zip":"11557","Latitude":40.6464574,"Longitude":-73.69004009999999,"Type":"Police"},{"Location":"Greenburgh Police Department","Street Address":"188 Tarrytown Road","City":"Greenburgh","Zip":"10607","Latitude":41.0501569,"Longitude":-73.8112807,"Type":"Police"},{"Location":"Rye Police Dept","Street Address":"21 Mccullough Place","City":"Rye","Zip":"10580","Latitude":40.9852982,"Longitude":-73.6830981,"Type":"Police"},{"Location":"White Plains Police Department","Street Address":"77 South Lexington Ave","City":"White Plains","Zip":"10601","Latitude":41.029974,"Longitude":-73.771254,"Type":"Police"},{"Location":"Port Chester Police Department","Street Address":"350 No. Main St","City":"Port Chester","Zip":"10573","Latitude":41.0068224,"Longitude":-73.6589097,"Type":"Police"},{"Location":"Rye Brook Police Department","Street Address":"938 King Street","City":"Rye Brook","Zip":"10573","Latitude":41.0346637,"Longitude":-73.6746371,"Type":"Police"},{"Location":"Sleepy Hollow Police Dept","Street Address":"28 Beekman Ave","City":"Sleepy Hollow","Zip":"10591","Latitude":41.0849525,"Longitude":-73.8594878,"Type":"Police"},{"Location":"Tarrytown Police Dept","Street Address":"One Depot Plaza","City":"Tarrytown","Zip":"10591","Latitude":41.07664070000001,"Longitude":-73.8638675,"Type":"Police"},{"Location":"Mt Pleasant Police Department","Street Address":"One Town Hall Plaza","City":"Valhalla","Zip":"10595","Latitude":41.0964672,"Longitude":-73.7776628,"Type":"Police"},{"Location":"Nassau County Eighth Precinct","Street Address":"286 Wantagh Ave","City":"Levittown","Zip":"11756","Latitude":40.7133684,"Longitude":-73.5031687,"Type":"Police"},{"Location":"Nassau County First Precinct","Street Address":"900 Merrick Rd","City":"Baldwin","Zip":"11510","Latitude":40.6508013,"Longitude":-73.6093282,"Type":"Police"},{"Location":"Town Of North Caste Police Dept","Street Address":"15 Bedford Rd","City":"Armonk","Zip":"10504","Latitude":41.12449340000001,"Longitude":-73.71298480000002,"Type":"Police"},{"Location":"New Castle Police Dept","Street Address":"200 South Greeley Ave","City":"Chappaqua","Zip":"10514","Latitude":41.1554437,"Longitude":-73.7746658,"Type":"Police"},{"Location":"PleasantvillePolice Department","Street Address":"80 Wheeler Avenue","City":"Pleasantville","Zip":"10570","Latitude":41.1338412,"Longitude":-73.7916575,"Type":"Police"},{"Location":"Bedford Police Department","Street Address":"307 Bedford Rd","City":"Bedford Hills","Zip":"10507","Latitude":41.2399903,"Longitude":-73.6986397,"Type":"Police"},{"Location":"Briarcliff Manor Police Department","Street Address":"1111 Pleasantville Rd","City":"Briarcliff Manor","Zip":"10510","Latitude":41.1489102,"Longitude":-73.8286274,"Type":"Police"},{"Location":"Village Of Ossining Police Dept","Street Address":"88 Spring Street","City":"Ossining","Zip":"10562","Latitude":41.15857949999999,"Longitude":-73.8642351,"Type":"Police"},{"Location":"Pound Ridge Police Department","Street Address":"177 Westchester Ave","City":"Pound Ridge","Zip":"10576","Latitude":41.1980093,"Longitude":-73.56906339999999,"Type":"Police"},{"Location":"Town Of Louisboro Police Dept","Street Address":"20 N Salem Rd","City":"Cross River","Zip":"10518","Latitude":41.26954020000001,"Longitude":-73.60748819999999,"Type":"Police"},{"Location":"Yorktown Police Department - Robe","Street Address":"2281 Crompond Rd","City":"Yorktown Heights","Zip":"10598","Latitude":41.2818064,"Longitude":-73.79489749999999,"Type":"Police"},{"Location":"SomersPolice Department","Street Address":"98 Primrose Street","City":"Somers","Zip":"10589","Latitude":41.30703159999999,"Longitude":-73.71551199999999,"Type":"Police"},{"Location":"Rockland County Sheriffs Office ","Street Address":"55 New Hempstead Rd","City":"New City","Zip":"10956","Latitude":41.1472495,"Longitude":-73.9945268,"Type":"Police"},{"Location":"Peekskill Police Department","Street Address":"2 Nelson Avenue","City":"Peekskill","Zip":"10566","Latitude":41.2906825,"Longitude":-73.9223596,"Type":"Police"},{"Location":"City Of Peekskill Police Dept","Street Address":"2 Nelson Ave","City":"Peekskill","Zip":"10566","Latitude":41.2906825,"Longitude":-73.9223596,"Type":"Police"},{"Location":"Town Of Carmel Police Dept","Street Address":"60 Mcalpin Ave","City":"Mahopac","Zip":"10541","Latitude":41.3774884,"Longitude":-73.723559,"Type":"Police"},{"Location":"Kent Police Department","Street Address":"25 Sybils Crossing","City":"Kent Lakes","Zip":"10512","Latitude":41.4796698,"Longitude":-73.670469,"Type":"Police"},{"Location":"Putnam County Sheriffs Office","Street Address":"3 County Center","City":"Carmel","Zip":"10512","Latitude":41.425256,"Longitude":-73.675485,"Type":"Police"},{"Location":"Department Of Health","Street Address":"1 Geneva Road","City":"Brewster","Zip":"10509","Latitude":41.4286204,"Longitude":-73.6257954,"Type":"Unknown"},{"Location":"Philipstown Town Hall","Street Address":"238 Main Street","City":"Cold Spring","Zip":"10516","Latitude":41.4232135,"Longitude":-73.9502347,"Type":"Government"},{"Location":"Highland Falls Pd","Street Address":"301 Main Street","City":"Highland Falls","Zip":"10928","Latitude":41.3705452,"Longitude":-73.9653155,"Type":"Unknown"},{"Location":"Patterson Town Hall","Street Address":"1142 Route 311","City":"Patterson","Zip":"12563","Latitude":41.5138455,"Longitude":-73.6046362,"Type":"Government"},{"Location":"Town Of Highlands Police Dept.","Street Address":"37 Main Street","City":"Highland Falls","Zip":"10922","Latitude":41.3563264,"Longitude":-73.971002,"Type":"Police"},{"Location":"Beacon City Police Dept","Street Address":"1 Municipal Plaza","City":"Beacon","Zip":"12508","Latitude":41.50802150000001,"Longitude":-73.97845749999999,"Type":"Police"},{"Location":"East Fishkill Town Police","Street Address":"2468 Route 52 ","City":"Hopewell Jct.","Zip":"12533","Latitude":41.5532916,"Longitude":-73.7954316,"Type":"Police"},{"Location":"Cornwall Town Pd","Street Address":"183 Main St","City":"Cornwall","Zip":"12518","Latitude":41.4389873,"Longitude":-74.0283899,"Type":"Government"},{"Location":"Village Of Wappingers Falls Pd","Street Address":"2628 South Ave","City":"Wappingers Falls","Zip":"12590","Latitude":41.59701829999999,"Longitude":-73.9175041,"Type":"Government"},{"Location":"Town Of New Windsor Police Department","Street Address":"555 Union Ave","City":"New Windsor","Zip":"12553","Latitude":41.4824513,"Longitude":-74.06282740000002,"Type":"Police"},{"Location":"City Of Newburgh Pd","Street Address":"55 Broadway","City":"Newburgh","Zip":"12550","Latitude":41.4990973,"Longitude":-74.00914279999999,"Type":"Unknown"},{"Location":"Orange Co Sheriff - Jail Lobby","Street Address":"110 Wells Farm Rd","City":"Goshen","Zip":"10924","Latitude":41.4048799,"Longitude":-74.3594952,"Type":"Police"},{"Location":"Village Of Chester Police Department","Street Address":"45 Main Street","City":"Chester","Zip":"10918","Latitude":41.3620734,"Longitude":-74.2721491,"Type":"Police"},{"Location":"Town Of Chester Pd","Street Address":"1786 Kings Highway","City":"Chester","Zip":"10918","Latitude":41.339824,"Longitude":-74.2755643,"Type":"Government"},{"Location":"Town Of Wallkill Police Dept","Street Address":"99 Tower Drive","City":"Middletown","Zip":"10941","Latitude":41.4669178,"Longitude":-74.374967,"Type":"Police"},{"Location":"Village Of Washingtonville Pd","Street Address":"38 East Main St","City":"Washingtonville","Zip":"10992","Latitude":41.4281594,"Longitude":-74.1643881,"Type":"Government"},{"Location":"Village Of Monroe Police Dept","Street Address":"104 Stage Road","City":"Monroe","Zip":"10950","Latitude":41.3277116,"Longitude":-74.1868855,"Type":"Police"},{"Location":"Town Of Warwick Police Department","Street Address":"132 Kings Highway","City":"Warwick","Zip":"10990","Latitude":41.2695812,"Longitude":-74.3367293,"Type":"Police"},{"Location":"Town Of Montgomery","Street Address":"110 Bracken Road","City":"Montgomery","Zip":"12549","Latitude":41.5221856,"Longitude":-74.1993817,"Type":"Government"},{"Location":"Village Of Greenwood Lake Pd","Street Address":"16 Church Street","City":"Greenwood Lake","Zip":"10925","Latitude":41.2218731,"Longitude":-74.2929715,"Type":"Government"},{"Location":"Mount Hope Pd","Street Address":"7 Baker Street","City":"Otisville","Zip":"10963","Latitude":41.4782835,"Longitude":-74.5288884,"Type":"Unknown"},{"Location":"Crawford Town Police","Street Address":"121 State Route 302","City":"Pine Bush","Zip":"12566","Latitude":41.6028803,"Longitude":-74.3047629,"Type":"Police"},{"Location":"Shawangunk Town Police","Street Address":"14 Central Ave","City":"Wallkill","Zip":"12589","Latitude":41.6050124,"Longitude":-74.1812705,"Type":"Police"},{"Location":"Port Jervis City Police Department","Street Address":"20 Hammond Street","City":"Port Jervis","Zip":"12771","Latitude":41.3750809,"Longitude":-74.69104329999999,"Type":"Police"},{"Location":"Nassau County Seventh Precinct","Street Address":"3636 Merrick Rd","City":"Seaford","Zip":"11783","Latitude":40.6649886,"Longitude":-73.4966221,"Type":"Police"},{"Location":"Nassau County Second Precinct","Street Address":"7700 Jericho Tpke","City":"Woodbury","Zip":"11797","Latitude":40.8121022,"Longitude":-73.4861973,"Type":"Police"},{"Location":"Stratton Air Ntl Guard 109Th Security Forces Squadron","Street Address":"Stratton Air National Guard Base","City":"Scotia","Zip":"12144","Latitude":42.8517387,"Longitude":-73.9204591,"Type":"Military"},{"Location":"Albany Va Medical Center","Street Address":"113 Holland Ave","City":"Albany","Zip":"12208","Latitude":42.64961270000001,"Longitude":-73.7744404,"Type":"Hospital"},{"Location":"Chatham Police Dept","Street Address":"77 Main Street","City":"Chatham","Zip":"12037","Latitude":42.3635956,"Longitude":-73.59479189999999,"Type":"Police"},{"Location":"Niskayuna Police Department","Street Address":"One Niskayuna Circle","City":"Niskayuna","Zip":"12309","Latitude":42.819086,"Longitude":-73.88544019999999,"Type":"Police"},{"Location":"Columbia County Sheriff'S Office","Street Address":"85 Industrial Tract","City":"Hudson","Zip":"12534","Latitude":42.24955749999999,"Longitude":-73.756781,"Type":"Police"},{"Location":"City Of Hudson New York","Street Address":"427 Warren St","City":"Hudson","Zip":"12534","Latitude":42.2503205,"Longitude":-73.7879808,"Type":"Unknown"},{"Location":"Town of Cairo Police Department","Street Address":"123 Angelo Canna Park","City":"Cairo ","Zip":"12413","Latitude":42.29805959999999,"Longitude":-74.002772,"Type":"Police"},{"Location":"City of Gloversville PD","Street Address":"3 Frontage Rd","City":"Gloversville","Zip":"12078","Latitude":43.0519693,"Longitude":-74.3493081,"Type":"Unknown"},{"Location":"Fulton County Sheriff'S Dept","Street Address":"2712 State Hwy 29","City":"Johnstown","Zip":"12095","Latitude":43.018037,"Longitude":-74.3490858,"Type":"Police"},{"Location":"Montgomery CO Sheriff's Office","Street Address":"200 Clark Drive","City":"Fultonville","Zip":"12072","Latitude":42.9337475,"Longitude":-74.3327551,"Type":"Police"},{"Location":"Amsterdam Police Department","Street Address":"Guy Park Ave Extension","City":"Amsterdam","Zip":"12010","Latitude":42.948041,"Longitude":-74.20470999999999,"Type":"Police"},{"Location":"Rotterdam Police Department","Street Address":"101 Princetown Rd","City":"Schenectady","Zip":"12306","Latitude":42.7955166,"Longitude":-73.9909457,"Type":"Police"},{"Location":"Schenectady Co Sheriff'S Office","Street Address":"320 Veeder Ave","City":"Schenectady","Zip":"12307","Latitude":42.8099415,"Longitude":-73.9399962,"Type":"Police"},{"Location":"Saugerties Police Department","Street Address":"4 High Street","City":"Saugerties","Zip":"12477","Latitude":42.0814994,"Longitude":-73.95885109999999,"Type":"Police"},{"Location":"Woodstock Police Dept","Street Address":"76 Tinker St","City":"Woodstock","Zip":"12498","Latitude":42.0405626,"Longitude":-74.12147259999999,"Type":"Police"},{"Location":"Olive Police Dept","Street Address":"50 Bostock Rd","City":"Shokan","Zip":"12481","Latitude":41.9750023,"Longitude":-74.2290763,"Type":"Police"},{"Location":"Shadaken Police Dept","Street Address":"58 Route 214","City":"Phoenicia","Zip":"12464","Latitude":42.0844325,"Longitude":-74.31654189999999,"Type":"Police"},{"Location":"Rosendale Polic Dept","Street Address":"520 Lefever Falls Rd","City":"Rosendale","Zip":"12472","Latitude":41.8643479,"Longitude":-74.0597773,"Type":"Unknown"},{"Location":"City Of Kingston Police Dept","Street Address":"1 Garraghan Drive - Lobby","City":"Kingston","Zip":"12401","Latitude":41.9236479,"Longitude":-73.9860116,"Type":"Police"},{"Location":"Suny New Paltz Univ Police Dept","Street Address":"S.B. 105 1 Hawk Drive ","City":"New Paltz","Zip":"12561","Latitude":41.7385417,"Longitude":-74.085245,"Type":"Police"},{"Location":"New Paltz Police Dept","Street Address":"82 South Putt Corners Rd","City":"New Paltz","Zip":"12561","Latitude":41.731415,"Longitude":-74.0685613,"Type":"Police"},{"Location":"Town Of Ulster Police Dept","Street Address":"1 Town Hal Drive","City":"Lake Katrine","Zip":"12449","Latitude":41.9765591,"Longitude":-74.002515,"Type":"Police"},{"Location":"Village Of Ellenville Police","Street Address":"2 Elting Court","City":"Ellenville","Zip":"12428","Latitude":41.7182002,"Longitude":-74.39599539999999,"Type":"Police"},{"Location":"Town Of Poughkeepsie Pd","Street Address":"19 Tucker Drive","City":"Poughkeepsie","Zip":"12603","Latitude":41.7052525,"Longitude":-73.8897798,"Type":"Government"},{"Location":"Town Of Hyde Park Police Dept","Street Address":"3 Cardinal Road","City":"Hyde Park","Zip":"12538","Latitude":41.7894808,"Longitude":-73.9104083,"Type":"Police"},{"Location":"Marlborough Police Dept","Street Address":"21 Milton Turnpike","City":"Milton","Zip":"12547","Latitude":41.65924,"Longitude":-73.9601909,"Type":"Police"},{"Location":"Sullivan County Public Health Services","Street Address":"50Community Lane","City":"Liberty","Zip":"12754","Latitude":41.795147,"Longitude":-74.7116676,"Type":"Hospital"},{"Location":"Glens Falls Police Department","Street Address":"42 Ridge St.","City":"Glens Falls","Zip":"12801","Latitude":43.3108637,"Longitude":-73.6443307,"Type":"Police"},{"Location":"Cambridge And Greenwich Pd","Street Address":"6 Academy Street","City":"Greenwich","Zip":"12834","Latitude":43.0914973,"Longitude":-73.5030424,"Type":"Unknown"},{"Location":"Whitehall Village Police Dept","Street Address":"1 Saunders St","City":"Whitehall","Zip":"12887","Latitude":43.5551133,"Longitude":-73.4011002,"Type":"Police"},{"Location":"Warren County Sheriffs Office","Street Address":"1400 State Route I","City":"Lake George","Zip":"12845","Latitude":43.76395410000001,"Longitude":-73.45678730000002,"Type":"Police"},{"Location":"City Of Plattsburgh Police Dept","Street Address":"45 Pine St","City":"Plattsburgh","Zip":"12901","Latitude":44.6923204,"Longitude":-73.45440049999999,"Type":"Police"},{"Location":"Clinton County Sheriff'S Office","Street Address":"25 Mccarthy Drive","City":"Plattsburgh","Zip":"12901","Latitude":44.72022,"Longitude":-73.4672329,"Type":"Police"},{"Location":"Royal Ottawa Healthcare Group","Street Address":"2330 State Route 11","City":"Mooers","Zip":"12958","Latitude":44.9659066,"Longitude":-73.5775961,"Type":"Unknown"},{"Location":"Tc3 Campus Police (Tomp Cort Comm College","Street Address":"170 North Street","City":"Dryden","Zip":"13053","Latitude":42.5021259,"Longitude":-76.2876709,"Type":"School"},{"Location":"Dryden Police Department","Street Address":"16 South St.","City":"Dryden","Zip":"13053","Latitude":42.48499229999999,"Longitude":-76.296773,"Type":"Police"},{"Location":"Groton Police Department","Street Address":"108 E. Cortland Street","City":"Groton","Zip":"13073","Latitude":42.5905345,"Longitude":-76.36712,"Type":"Police"},{"Location":"Farnham Family Services","Street Address":"283 W 2Nd St Ste 100","City":"Oswego","Zip":"13126","Latitude":43.449382,"Longitude":-76.508101,"Type":"Unknown"},{"Location":"Cayuga County Sheriffs Office","Street Address":"7445 County House Rd","City":"Auburn","Zip":"13021","Latitude":42.9787107,"Longitude":-76.5445912,"Type":"Police"},{"Location":"Baldwinsville Police Dept","Street Address":"16 W. Genesee Street ","City":"Baldwinsville ","Zip":"13027","Latitude":43.1588358,"Longitude":-76.3334824,"Type":"Police"},{"Location":"Camillus Pd - Municipal Bldg","Street Address":"4600 West Genesee Street","City":"Syracuse","Zip":"13219","Latitude":43.0453408,"Longitude":-76.24840259999999,"Type":"Government"},{"Location":"Camillus Police Dept","Street Address":"4600 W Genesee St","City":"Syracuse","Zip":"13219","Latitude":43.0453408,"Longitude":-76.24840259999999,"Type":"Police"},{"Location":"Seneca County Office Building","Street Address":"1 Dipronio Driver","City":"Waterloo","Zip":"13165","Latitude":42.9082428,"Longitude":-76.8434465,"Type":"Government"},{"Location":"Town Of Cicero Police Dept","Street Address":"8236 Brewerton Road","City":"Cicero","Zip":"13039","Latitude":43.16924170000001,"Longitude":-76.1152384,"Type":"Police"},{"Location":"Town Of Manlius Police Dept","Street Address":"One Arkie Albanese Ave","City":"Manlius","Zip":"13104","Latitude":43.0038199,"Longitude":-75.9845184,"Type":"Police"},{"Location":"Sherrill Police Dept","Street Address":"373 Sherrill Road","City":"Sherrill","Zip":"13461","Latitude":43.0722949,"Longitude":-75.59943439999999,"Type":"Police"},{"Location":"Madison County Sheriff'S Office","Street Address":"138 N Court St Bldg #7","City":"Wampsville","Zip":"13163","Latitude":43.0805022,"Longitude":-75.70480069999999,"Type":"Police"},{"Location":"Waterville Municipal Building","Street Address":"122 Barton Ave","City":"Waterville","Zip":"13480","Latitude":42.930242,"Longitude":-75.3767249,"Type":"Government"},{"Location":"Clark Mills Police Dept","Street Address":"2 New Street","City":"Clark Mills","Zip":"13321","Latitude":43.0913506,"Longitude":-75.3768915,"Type":"Police"},{"Location":"Town Of Webb Police Dept","Street Address":"3139 Nys Route 28","City":"Old Forge","Zip":"13420","Latitude":43.7410573,"Longitude":-74.7689884,"Type":"Police"},{"Location":"Rome Police Dept","Street Address":"301 North James St","City":"Rome","Zip":"13440","Latitude":43.2136114,"Longitude":-75.4555018,"Type":"Police"},{"Location":"Oriskany Police Dept","Street Address":"708 Utica Street","City":"Oriskany","Zip":"13424","Latitude":43.157865,"Longitude":-75.33313799999999,"Type":"Police"},{"Location":"Oriskany Sheriff'S Dept","Street Address":"6065 Judd Road","City":"Oriskany","Zip":"13424","Latitude":43.1559399,"Longitude":-75.37672859999999,"Type":"Police"},{"Location":"Utica Police Department","Street Address":"413 Oriskany Street West","City":"Utica","Zip":"13502","Latitude":43.1040825,"Longitude":-75.2334577,"Type":"Police"},{"Location":"Trenton Town Hall","Street Address":"8520 Old Poland Rd","City":"Barneveld","Zip":"13304","Latitude":43.27415329999999,"Longitude":-75.185125,"Type":"Government"},{"Location":"Boonville Police Dept","Street Address":"13149 State Route 12","City":"Boonville","Zip":"13309","Latitude":43.4244517,"Longitude":-75.23036119999999,"Type":"Police"},{"Location":"Camden Police Dept","Street Address":"30 Fayette Street","City":"Camden","Zip":"13316","Latitude":43.341081,"Longitude":-75.7520816,"Type":"Police"},{"Location":"Village Of Owego Police Department","Street Address":"90 Temple Street","City":"Owego","Zip":"13827","Latitude":42.1050019,"Longitude":-76.26262080000001,"Type":"Police"},{"Location":"Cornell University Police Department","Street Address":"117 Statler Drive","City":"Ithaca","Zip":"14853","Latitude":42.4459844,"Longitude":-76.48060430000001,"Type":"Police"},{"Location":"Tompkins County Human Services Building","Street Address":"320 W. Martin Luther King Jr. Street","City":"Ithaca","Zip":"14850","Latitude":42.4397605,"Longitude":-76.5031156,"Type":"Government"},{"Location":"T.C. Dept Of Probation","Street Address":"320 W. State Street","City":"Ithaca","Zip":"14850","Latitude":42.4397605,"Longitude":-76.5031156,"Type":"Unknown"},{"Location":"T.C. Sheriff, Public Safety Bldg","Street Address":"779 Warren Rd","City":"Ithaca","Zip":"14850","Latitude":42.49277910000001,"Longitude":-76.4668825,"Type":"Police"},{"Location":"Cayuga Heights Police Department","Street Address":"836 Hanshaw Rd","City":"Ithaca","Zip":"14850","Latitude":42.4697074,"Longitude":-76.4790368,"Type":"Police"},{"Location":"Ithaca Police Dept","Street Address":"120 E. Clinton Street","City":"Ithaca","Zip":"14850","Latitude":42.437198,"Longitude":-76.4975558,"Type":"Police"},{"Location":"Village Of Bainbridge Police","Street Address":"35 West Main St.","City":"Bainbridge","Zip":"13733","Latitude":42.2938902,"Longitude":-75.4798462,"Type":"Police"},{"Location":"Sidney Police Department","Street Address":"21 Liberty Street","City":"Sidney","Zip":"13838","Latitude":42.3171807,"Longitude":-75.39053899999999,"Type":"Police"},{"Location":"Broome Co Sheriff'S Office","Street Address":"44 Hawley St ","City":"Binghamton","Zip":"13901","Latitude":42.0962182,"Longitude":-75.911315,"Type":"Police"},{"Location":"Broome Co Sheriff'S Office","Street Address":"155 Lt. Vanwinkle Dr.","City":"Binghamton","Zip":"13905","Latitude":42.1324788,"Longitude":-75.91667300000002,"Type":"Police"},{"Location":"Broome County Sheriff'S Dept","Street Address":"155 LtVan Winkle Dr","City":"Binghamton","Zip":"13905","Latitude":42.1324788,"Longitude":-75.91667300000002,"Type":"Police"},{"Location":"Attica Police Department","Street Address":"43 Exchange St","City":"Attica","Zip":"14011","Latitude":42.8628789,"Longitude":-78.27999919999999,"Type":"Police"},{"Location":"Orleans County Sheriff'S Dept","Street Address":"13925 State Route 31","City":"Albion","Zip":"14411","Latitude":43.2398186,"Longitude":-78.2206175,"Type":"Police"},{"Location":"Niagara County Sheriff'S Office","Street Address":"5526 Niagara Street Extension","City":"Lockport","Zip":"14094","Latitude":43.1802374,"Longitude":-78.737262,"Type":"Police"},{"Location":"Suny Buffalo/Univ Police","Street Address":"107 Bissell Hall","City":"Buffalo","Zip":"14260","Latitude":42.9066074,"Longitude":-78.82297849999999,"Type":"Police"},{"Location":"Orchard Park Police Department","Street Address":"4295 South Buffalo Street","City":"Orchard Park","Zip":"14127","Latitude":42.76641310000001,"Longitude":-78.7434141,"Type":"Police"},{"Location":"Vsp Marketing Graphic Group","Street Address":"10 Dyke Rd","City":"West Seneca","Zip":"14224","Latitude":42.844729,"Longitude":-78.6980592,"Type":"Unknown"},{"Location":"East Aurora/Town Of Aurora Pd","Street Address":"571 Main St","City":"East Aurora","Zip":"14052","Latitude":42.7676802,"Longitude":-78.6134062,"Type":"Government"},{"Location":"Ontario County Sheriff'S Office","Street Address":"74 Ontario Street","City":"Canandagua","Zip":"14424","Latitude":42.8893905,"Longitude":-77.278453,"Type":"Police"},{"Location":"Bristol Town Hall","Street Address":"6740 County Road 32","City":"Canandaigua","Zip":"14424","Latitude":42.80944,"Longitude":-77.393277,"Type":"Government"},{"Location":"Mead Square Pharmacy","Street Address":"53 W Main Street","City":"Victor","Zip":"14564","Latitude":42.9824139,"Longitude":-77.41187,"Type":"Pharmacy"},{"Location":"Clifton Springs Hospital & Clinic","Street Address":"2 Coulter Rd","City":"Clifton Springs","Zip":"14432","Latitude":42.9601279,"Longitude":-77.1366832,"Type":"Hospital"},{"Location":"Phelps Police Dept","Street Address":"8 Banta Street","City":"Phelps","Zip":"14532","Latitude":42.9600859,"Longitude":-77.059805,"Type":"Police"},{"Location":"Geneva Police Department","Street Address":"255 Exchange Street","City":"Geneva","Zip":"14456","Latitude":42.8711652,"Longitude":-76.9787976,"Type":"Hospital"},{"Location":"Village Of Newark Police Department","Street Address":"100 East Miller Street ","City":"Newark","Zip":"14513","Latitude":43.0461122,"Longitude":-77.09354359999999,"Type":"Police"},{"Location":"Fairport Police Dept","Street Address":"31 South Main Street","City":"Fairport","Zip":"14450","Latitude":43.1005168,"Longitude":-77.44136929999999,"Type":"Police"},{"Location":"Livingston Co Sheriff'S Office","Street Address":"4 Court Street","City":"Geneseo","Zip":"14454","Latitude":42.8009905,"Longitude":-77.8156503,"Type":"Police"},{"Location":"Genesee Valley Health Partnership Inc","Street Address":"2 Murray Hill Drive","City":"Mt Morris","Zip":"14510","Latitude":42.7293156,"Longitude":-77.8800555,"Type":"Hospital"},{"Location":"Monroe Co Sheriff'S - Zone B","Street Address":"245 Summit Point Dr","City":"Henrietta","Zip":"14467","Latitude":43.0567111,"Longitude":-77.6504942,"Type":"Police"},{"Location":"Seneca County Sheriff'S Office","Street Address":"6150 State Route 96","City":"Romulus","Zip":"14541","Latitude":42.7209826,"Longitude":-76.82498029999999,"Type":"Police"},{"Location":"Trumansburg Police Department","Street Address":"5 Elm St","City":"Trumansbury","Zip":"14886","Latitude":42.5413822,"Longitude":-76.6608219,"Type":"Police"},{"Location":"Brockport Pd","Street Address":"1 Clinton Street","City":"Brockport","Zip":"14420","Latitude":43.2157839,"Longitude":-77.9391247,"Type":"Unknown"},{"Location":"Greece Police Department","Street Address":"400 Island Cottage Rd","City":"Rochester","Zip":"14612","Latitude":43.2632418,"Longitude":-77.66003669999999,"Type":"Police"},{"Location":"Monroe Co Sheriff'S-Zone C","Street Address":"2330 Union Street","City":"Spencerport","Zip":"14559","Latitude":43.1774057,"Longitude":-77.8035788,"Type":"Police"},{"Location":"Ogden Police Dept","Street Address":"269 Ogden Center Rd","City":"Spencerport","Zip":"14559","Latitude":43.1703969,"Longitude":-77.80239859999999,"Type":"Police"},{"Location":"Gates Police Dept","Street Address":"1605 Buffalo Rd","City":"Gates","Zip":"14624","Latitude":43.1487544,"Longitude":-77.69394609999999,"Type":"Police"},{"Location":"Webster Police Dept","Street Address":"1000 Ridge Road","City":"Webster","Zip":"14580","Latitude":43.20966490000001,"Longitude":-77.4580964,"Type":"Police"},{"Location":"Brighton Police Department","Street Address":"2300 Elmwood Avenue","City":"Rochester","Zip":"14618","Latitude":43.127059,"Longitude":-77.57557299999999,"Type":"Police"},{"Location":"Monroe Co Sheriff'S Office Zone A","Street Address":"789 Linden Ave","City":"Rochester","Zip":"14625","Latitude":43.12052560000001,"Longitude":-77.5037589,"Type":"Police"},{"Location":"East Rochester Police Dept","Street Address":"317 Main Street","City":"East Rochester","Zip":"14445","Latitude":43.1125486,"Longitude":-77.4855207,"Type":"Police"},{"Location":"East Rochester Police Dept","Street Address":"254 West Ivy St","City":"East Rochester","Zip":"14445","Latitude":43.10963479999999,"Longitude":-77.495865,"Type":"Police"},{"Location":"City Of Salamanca Police Dept","Street Address":"1 Barrett Drive","City":"Salamanca","Zip":"14779","Latitude":42.157576,"Longitude":-78.70843099999999,"Type":"Police"},{"Location":"City Of Olean Police","Street Address":"101 E. State St.","City":"Olean","Zip":"14760","Latitude":42.0778266,"Longitude":-78.42927449999999,"Type":"Police"},{"Location":"Cattaraugus County Sheriff'S Office","Street Address":"1 Leo Moss Drive","City":"Olean","Zip":"14760","Latitude":42.08635,"Longitude":-78.4500609,"Type":"Police"},{"Location":"Chautauqua County Sheriff'S Office","Street Address":"15 E. Chautauqua Street","City":"Mayville","Zip":"14757","Latitude":42.2544692,"Longitude":-79.503649,"Type":"Police"},{"Location":"Westfield Police Department","Street Address":"23 Elm Street","City":"Westfield","Zip":"14787","Latitude":42.3222159,"Longitude":-79.57609459999999,"Type":"Police"},{"Location":"Jamestown Police Dept","Street Address":"201 E 2Nd St","City":"Jamestown","Zip":"14701","Latitude":42.0961665,"Longitude":-79.23810069999999,"Type":"Police"},{"Location":"Steuben Co Sheriff'S","Street Address":"3 East Pulteney Square","City":"Bath","Zip":"14810","Latitude":42.3324766,"Longitude":-77.3177472,"Type":"Police"},{"Location":"Steuben County Sheriff'S Office","Street Address":"7007 Rumsey Street Extension","City":"Bath","Zip":"14810","Latitude":42.350548,"Longitude":-77.29539,"Type":"Police"},{"Location":"Bath Va Medical Center","Street Address":"76 Veterans Ave","City":"Bath","Zip":"14810","Latitude":42.3434235,"Longitude":-77.3461277,"Type":"Hospital"},{"Location":"Allegany County Sheriff'S Office","Street Address":"4884 State Route 19 S","City":"Belmont","Zip":"14813","Latitude":42.211879,"Longitude":-78.0146824,"Type":"Police"},{"Location":"Horseheads Police Department","Street Address":"202 South Main St","City":"Horseheads","Zip":"14845","Latitude":42.16681759999999,"Longitude":-76.8206933,"Type":"Police"},{"Location":"City Of Elmira Pd","Street Address":"317 East Church Street","City":"Elmira","Zip":"14901","Latitude":42.0915825,"Longitude":-76.8030917,"Type":"Unknown"},{"Location":"West Elmira Police Department","Street Address":"317 East Church St","City":"Elmira","Zip":"14901","Latitude":42.0915825,"Longitude":-76.8030917,"Type":"Police"},{"Location":"West Elmira Police Department","Street Address":"1255W. Water Street","City":"Elmira","Zip":"14905","Latitude":42.07763689999999,"Longitude":-76.8446026,"Type":"Police"},{"Location":"Schuyler County Sheriff'S Office","Street Address":"323 Owego Street","City":"Montour Falls","Zip":"14865","Latitude":42.3409968,"Longitude":-76.84127029999999,"Type":"Police"},{"Location":"Schuyler County Sheriff'S Office","Street Address":"106 10Th Street","City":"Watkins Glen","Zip":"14891","Latitude":42.3768833,"Longitude":-76.87078989999999,"Type":"Police"}]