[{"Location":"CVS Pharmacy #02445","Street Address":"540 Amsterdam Avenue","City":"New York","Zip":"10024","Latitude":"40.7881027","Longitude":"-73.9755189","Type":"Pharmacy","Phone":"212/712-2821","Note":"24/7 Accepts Controlled Substances, No Sharps, Aerosols, Inhalers, Illicit Drugs, Chemotherapy Waste"},{"Location":"Walgreens Pharmacy #14146","Street Address":"2522 Broadway","City":"New York","Zip":"10025","Latitude":"40.7933261","Longitude":"-73.9722813","Type":"Pharmacy","Phone":"","Note":"Accepts controlled substances."},{"Location":"Walgreens Pharmacy #14401","Street Address":"775 Columbus Ave","City":"New York","Zip":"10025","Latitude":"40.793884","Longitude":"-73.9664378","Type":"Pharmacy","Phone":"","Note":"Accepts controlled substances."},{"Location":"Walgreens Pharmacy #14191","Street Address":"1231 Madison Ave","City":"New York","Zip":"10128","Latitude":"40.7825136","Longitude":"-73.9573556","Type":"Pharmacy","Phone":"","Note":"Accepts controlled substances."},{"Location":"Walgreens Pharmacy #12474","Street Address":"353 W. 57th St. Frnt 2","City":"New York","Zip":"10019","Latitude":"40.767942","Longitude":"-73.9853258","Type":"Pharmacy","Phone":"","Note":"Accepts controlled substances."},{"Location":"CVS Pharmacy #10298","Street Address":"241 West 57Th St.","City":"New York","Zip":"10019","Latitude":"40.7668312","Longitude":"-73.9824844","Type":"Pharmacy","Phone":"212/247-5848","Note":"24/7 Accepts Controlled Substances, No Sharps, Aerosols, Inhalers, Illicit Drugs, Chemotherapy Waste"},{"Location":"CVS Pharmacy #02144","Street Address":"1396 Second Avenue","City":"New York","Zip":"10021","Latitude":"40.7689423","Longitude":"-73.9579667","Type":"Pharmacy","Phone":"212/249-5699","Note":"24/7 Accepts Controlled Substances, No Sharps, Aerosols, Inhalers, Illicit Drugs, Chemotherapy Waste"},{"Location":"Walgreens Pharmacy #14232","Street Address":"1498 York Ave","City":"New York","Zip":"10075","Latitude":"40.7715539","Longitude":"-73.9498956","Type":"Pharmacy","Phone":"","Note":"Accepts controlled substances."},{"Location":"Walgreens Pharmacy #14115","Street Address":"51 W 51st St","City":"New York","Zip":"10019","Latitude":"40.7604055","Longitude":"-73.9793609","Type":"Pharmacy","Phone":"","Note":"Accepts controlled substances."},{"Location":"Walgreens Pharmacy #14465","Street Address":"949 3rd Ave","City":"New York","Zip":"10022","Latitude":"40.7599046","Longitude":"-73.9673607","Type":"Pharmacy","Phone":"","Note":"Accepts controlled substances."},{"Location":"CVS Pharmacy #03752","Street Address":"630 Lexington Avenue","City":"New York","Zip":"10022","Latitude":"40.7588892","Longitude":"-73.9713866","Type":"Pharmacy","Phone":"917/369-8688","Note":"24/7 Accepts Controlled Substances, No Sharps, Aerosols, Inhalers, Illicit Drugs, Chemotherapy Waste"},{"Location":"Walgreens Pharmacy #14223","Street Address":"661 8th. Ave","City":"New York","Zip":"10036","Latitude":"40.7575658","Longitude":"-73.9899052","Type":"Pharmacy","Phone":"","Note":"Accepts controlled substances."},{"Location":"CVS Pharmacy #07019","Street Address":"150 East 42Nd St.","City":"New York","Zip":"10017","Latitude":"40.7508121","Longitude":"-73.9755335","Type":"Pharmacy","Phone":"212/661-8139","Note":"24/7 Accepts Controlled Substances, No Sharps, Aerosols, Inhalers, Illicit Drugs, Chemotherapy Waste"},{"Location":"Walgreens Pharmacy #14169","Street Address":"155 E 34th St","City":"New York","Zip":"10016","Latitude":"40.746168","Longitude":"-73.978543","Type":"Pharmacy","Phone":"","Note":"Accepts controlled substances."},{"Location":"Walgreens Pharmacy #14160","Street Address":"71 W 23rd St","City":"New York","Zip":"10010","Latitude":"40.7429639","Longitude":"-73.9922766","Type":"Pharmacy","Phone":"","Note":"Accepts controlled substances."},{"Location":"CVS Pharmacy #07576","Street Address":"31-01 Ditmars Blvd.","City":"Astoria","Zip":"11105","Latitude":"40.776013","Longitude":"-73.910205","Type":"Pharmacy","Phone":"718/545-0128","Note":"24/7 Accepts Controlled Substances, No Sharps, Aerosols, Inhalers, Illicit Drugs, Chemotherapy Waste"},{"Location":"Walgreens Pharmacy #14468","Street Address":"52 E 14th St","City":"New York","Zip":"10003","Latitude":"40.7344091","Longitude":"-73.9904346","Type":"Pharmacy","Phone":"","Note":"Accepts controlled substances."},{"Location":"CVS Pharmacy #02557","Street Address":"253 First Avenue","City":"New York","Zip":"10003","Latitude":"40.7319489","Longitude":"-73.9825438","Type":"Pharmacy","Phone":"212/254-1454","Note":"24/7 Accepts Controlled Substances, No Sharps, Aerosols, Inhalers, Illicit Drugs, Chemotherapy Waste"},{"Location":"Walgreens Pharmacy #14449","Street Address":"7301 37th Ave","City":"Jackson Heights","Zip":"11372","Latitude":"40.7489072","Longitude":"-73.8923662","Type":"Pharmacy","Phone":"","Note":"Accepts controlled substances."},{"Location":"CVS Pharmacy #01113","Street Address":"89-11 Northern Blvd.","City":"Jackson Heights","Zip":"11372","Latitude":"40.7565874","Longitude":"-73.8783385","Type":"Pharmacy","Phone":"718/426-2508","Note":"24/7 Accepts Controlled Substances, No Sharps, Aerosols, Inhalers, Illicit Drugs, Chemotherapy Waste"},{"Location":"Walgreens Pharmacy #14485","Street Address":"40 Wall St","City":"New York","Zip":"10005","Latitude":"40.7061418","Longitude":"-74.0098382","Type":"Pharmacy","Phone":"","Note":"Accepts controlled substances."},{"Location":"Walgreens Pharmacy #4319","Street Address":"8420 Broadway","City":"Elmhurst","Zip":"11373","Latitude":"40.7395402","Longitude":"-73.8780713","Type":"Pharmacy","Phone":"","Note":"Accepts controlled substances."},{"Location":"Walgreens Pharmacy #1013","Street Address":"5564 Broadway","City":"Bronx","Zip":"10463","Latitude":"40.8784962","Longitude":"-73.9047179","Type":"Pharmacy","Phone":"","Note":"Accepts controlled substances."},{"Location":"CVS Pharmacy #02975","Street Address":"7960 Metropolitan Avenue","City":"Middle Village","Zip":"11379","Latitude":"40.712829","Longitude":"-73.8719071","Type":"Pharmacy","Phone":"718/326-4910","Note":"24/7 Accepts Controlled Substances, No Sharps, Aerosols, Inhalers, Illicit Drugs, Chemotherapy Waste"},{"Location":"Walgreens Pharmacy #15352","Street Address":"1281 Fulton St","City":"Brooklyn","Zip":"11216","Latitude":"40.6804182","Longitude":"-73.950198","Type":"Pharmacy","Phone":"","Note":"Accepts controlled substances."},{"Location":"Walgreens Pharmacy #14312","Street Address":"296 Flatbush Ave","City":"Brooklyn","Zip":"11217","Latitude":"40.6781029","Longitude":"-73.9733239","Type":"Pharmacy","Phone":"","Note":"Accepts controlled substances."},{"Location":"CVS Pharmacy #02057","Street Address":"100-02 Queens Boulevard","City":"Forest Hills","Zip":"11375","Latitude":"40.7265604","Longitude":"-73.8538271","Type":"Pharmacy","Phone":"718/520-2334","Note":"24/7 Accepts Controlled Substances, No Sharps, Aerosols, Inhalers, Illicit Drugs, Chemotherapy Waste"},{"Location":"Walgreens Pharmacy #14438","Street Address":"13602 Roosevelt Ave","City":"Flushing","Zip":"11354","Latitude":"40.7596401","Longitude":"-73.8298372","Type":"Pharmacy","Phone":"","Note":"Accepts controlled substances."},{"Location":"CVS Pharmacy #07067","Street Address":"1916 Williamsbridge Road","City":"Bronx","Zip":"10461","Latitude":"40.8529468","Longitude":"-73.8529791","Type":"Pharmacy","Phone":"718/239-7569","Note":"24/7 Accepts Controlled Substances, No Sharps, Aerosols, Inhalers, Illicit Drugs, Chemotherapy Waste"},{"Location":"Walgreens Pharmacy #14199","Street Address":"10716 71st Ave","City":"Forest Hills","Zip":"11375","Latitude":"40.7204527","Longitude":"-73.8442334","Type":"Pharmacy","Phone":"","Note":"Accepts controlled substances."},{"Location":"CVS Pharmacy #03096","Street Address":"3775 E. Tremont Ave.","City":"Bronx","Zip":"10465","Latitude":"40.8255689","Longitude":"-73.8205401","Type":"Pharmacy","Phone":"718/597-3757","Note":"24/7 Accepts Controlled Substances, No Sharps, Aerosols, Inhalers, Illicit Drugs, Chemotherapy Waste"},{"Location":"Walgreens Pharmacy #11806","Street Address":"114 Beverley Rd","City":"Brooklyn","Zip":"11218","Latitude":"40.6428758","Longitude":"-73.9786924","Type":"Pharmacy","Phone":"","Note":"Accepts controlled substances."},{"Location":"Walgreens Pharmacy #14432","Street Address":"5008 5th Ave.","City":"Brooklyn","Zip":"11220","Latitude":"40.6448628","Longitude":"-74.0105727","Type":"Pharmacy","Phone":"","Note":"Accepts controlled substances."},{"Location":"CVS Pharmacy #02769","Street Address":"4901 Kings Highway","City":"Brooklyn","Zip":"11234","Latitude":"40.634164","Longitude":"-73.9288645","Type":"Pharmacy","Phone":"718/252-3791","Note":"24/7 Accepts Controlled Substances, No Sharps, Aerosols, Inhalers, Illicit Drugs, Chemotherapy Waste"},{"Location":"CVS Pharmacy #00542","Street Address":"212-20 Northern Boulevard","City":"Bayside","Zip":"11361","Latitude":"40.7596961","Longitude":"-73.7705492","Type":"Pharmacy","Phone":"718/281-3223","Note":"24/7 Accepts Controlled Substances, No Sharps, Aerosols, Inhalers, Illicit Drugs, Chemotherapy Waste"},{"Location":"CVS Pharmacy #02141","Street Address":"2925 Kings Highway","City":"Brooklyn","Zip":"11229","Latitude":"40.6162819","Longitude":"-73.9452586","Type":"Pharmacy","Phone":"718/677-3871","Note":"24/7 Accepts Controlled Substances, No Sharps, Aerosols, Inhalers, Illicit Drugs, Chemotherapy Waste"},{"Location":"Walgreens Pharmacy #4565","Street Address":"12704 Guy R Brewer Blvd","City":"Jamaica","Zip":"11434","Latitude":"40.6777205","Longitude":"-73.7798613","Type":"Pharmacy","Phone":"","Note":"Accepts controlled substances."},{"Location":"New York Police Department - 120th Precinct","Street Address":"78 Richmond Terrace","City":"StGeorge","Zip":"10301","Latitude":"40.6274394","Longitude":"-74.0946311","Type":"Police","Phone":"718 876-8500","Note":"24-hour access"},{"Location":"CVS Pharmacy #00144","Street Address":"219-39 89Th Avenue","City":"Queens Village","Zip":"11427","Latitude":"40.7294008","Longitude":"-73.7437864","Type":"Pharmacy","Phone":"718/479-3774","Note":"24/7 Accepts Controlled Substances, No Sharps, Aerosols, Inhalers, Illicit Drugs, Chemotherapy Waste"},{"Location":"CVS Pharmacy #10904","Street Address":"812 Forest Ave","City":"Staten Island","Zip":"10301","Latitude":"40.628743","Longitude":"-74.1164356","Type":"Pharmacy","Phone":"718/720-3700","Note":"M-F 9a-8p, Sat 9a-6p, Sun 9a-3p Accepts Controlled Substances, No Sharps, Aerosols, Inhalers, Illicit Drugs, Chemotherapy Waste"},{"Location":"Walgreens Pharmacy #2122","Street Address":"1230 Nepperhan Ave","City":"Yonkers","Zip":"10703","Latitude":"40.9653085","Longitude":"-73.8717033","Type":"Pharmacy","Phone":"","Note":"Accepts controlled substances."},{"Location":"CVS Pharmacy #00530","Street Address":"309 Main St.","City":"New Rochelle","Zip":"10801","Latitude":"40.91336","Longitude":"-73.7754566","Type":"Pharmacy","Phone":"914/654-8603","Note":"24/7 Accepts Controlled Substances, No Sharps, Aerosols, Inhalers, Illicit Drugs, Chemotherapy Waste"},{"Location":"CVS Pharmacy #06049","Street Address":"1361 Hylan Blvd.","City":"Staten Island","Zip":"10305","Latitude":"40.5954049","Longitude":"-74.0864632","Type":"Pharmacy","Phone":"718/979-2828","Note":"24/7 Accepts Controlled Substances, No Sharps, Aerosols, Inhalers, Illicit Drugs, Chemotherapy Waste"},{"Location":"CVS Pharmacy #06048","Street Address":"1933 Victory Blvd.","City":"Staten Island","Zip":"10314","Latitude":"40.6128465","Longitude":"-74.1287215","Type":"Pharmacy","Phone":"718/447-0300","Note":"24/7 Accepts Controlled Substances, No Sharps, Aerosols, Inhalers, Illicit Drugs, Chemotherapy Waste"},{"Location":"New York Police Department - 121st Precinct","Street Address":"970 Richmond Ave","City":"Staten Island","Zip":"10314","Latitude":"40.6236077","Longitude":"-74.1491992","Type":"Police","Phone":"718 697-8700","Note":"24-hour access"},{"Location":"CVS Pharmacy #00534","Street Address":"2290 Central Park Ave.","City":"Yonkers","Zip":"10710","Latitude":"40.9762896","Longitude":"-73.8311827","Type":"Pharmacy","Phone":"914/793-3933","Note":"24/7 Accepts Controlled Substances, No Sharps, Aerosols, Inhalers, Illicit Drugs, Chemotherapy Waste"},{"Location":"Walgreens Pharmacy #6179","Street Address":"1551 Richmond Ave","City":"Staten Island","Zip":"10314","Latitude":"40.6101742","Longitude":"-74.1601525","Type":"Pharmacy","Phone":"","Note":"Accepts controlled substances."},{"Location":"CVS Pharmacy #01169","Street Address":"44 North Central Avenue","City":"Valley Stream","Zip":"11580","Latitude":"40.6693276","Longitude":"-73.7083871","Type":"Pharmacy","Phone":"516/872-6861","Note":"24/7 Accepts Controlled Substances, No Sharps, Aerosols, Inhalers, Illicit Drugs, Chemotherapy Waste"},{"Location":"New York Police Department - 122nd Precinct","Street Address":"2320 Hylan Blvd","City":"New Dorp","Zip":"10306","Latitude":"40.5741716","Longitude":"-74.1055558","Type":"Police","Phone":"718 667-2211","Note":"24-hour access"},{"Location":"Scarsdale Police Department","Street Address":"25 Ramsey Rd","City":"Scarsdale","Zip":"10583","Latitude":"40.9900981","Longitude":"-73.766857","Type":"Police","Phone":"914 472-7877","Note":"Cannot accept:Syringes, thermometers, IV bags, bloody or infectious waste, personal care products, hydrogen peroxide, empty containers, and inhalers"},{"Location":"Greenvale Pharmacy","Street Address":"5 Northern Blvd","City":"Greenvale","Zip":"11548","Latitude":"40.809393","Longitude":"-73.629626","Type":"Pharmacy","Phone":"516 621-2260","Note":""},{"Location":"Garden City Police Department","Street Address":"349 Stewart Avenue","City":"Garden City","Zip":"11530","Latitude":"40.7265409","Longitude":"-73.6368128","Type":"Police","Phone":"516 465-4100","Note":"24-hour access. Cannot accept needles or sharps, liquid forms of prescription medication, or bio-hazard materials. Cannot accept medications from hospitals, pharmacies, or doctors offices."},{"Location":"CVS Pharmacy #06047","Street Address":"640 Arthur Kill Road","City":"Staten Island","Zip":"10308","Latitude":"40.5595475","Longitude":"-74.1628515","Type":"Pharmacy","Phone":"718/948-5200","Note":"24/7 Accepts Controlled Substances, No Sharps, Aerosols, Inhalers, Illicit Drugs, Chemotherapy Waste"},{"Location":"CVS Pharmacy #00631","Street Address":"75 N. Middletown Rd.","City":"Pearl River","Zip":"10965","Latitude":"41.0605059","Longitude":"-74.013395","Type":"Pharmacy","Phone":"845/735-8101","Note":"24/7 Accepts Controlled Substances, No Sharps, Aerosols, Inhalers, Illicit Drugs, Chemotherapy Waste"}]